{
  "norad_id": 54007,
  "name": "STARLINK-5132",
  "history": [
    {
      "epoch": "2026-03-28T13:00:27.721728Z",
      "apogee_km": 540.6346460627165,
      "perigee_km": 538.6686105345543,
      "latitude_deg": 1.6697073750310305e-05,
      "longitude_deg": 108.05876215250703,
      "height_km": 540.4315945561247,
      "semi_major_axis_km": 6917.788628298636,
      "eccentricity": 0.0001421,
      "inclination_deg": 53.2151,
      "raan_deg": 129.1352,
      "arg_perigee_deg": 83.2562,
      "mean_anomaly_deg": 276.8592,
      "mean_motion_rev_day": 15.08870021
    }
  ]
}