{"fetched_at":"2026-03-29T16:36:15Z","count":15609,"tles":[{"name":"STARLINK-5132","line1":"1 54007U 22125AV  26087.54198752  .00005874  00000+0  38655-3 0  9995","line2":"2 54007  53.2151 129.1352 0001421  83.2562 276.8592 15.08870021192319","category":"Starlink"}]}